si_do,gu_gun,name,address,content01,latitude,longitude,phone,homepage
矫档,备焙,包堡瘤,林家,汲疙,困档,版档,傈拳锅龋,权其捞瘤
碍盔碍盔+F24AA5:I110,碍釜矫,碍釜目乔芭府,碍盔档 碍釜矫 芒秦肺 17,"碍盔档 碍釜矫绰 惫郴 瘤规磊摹窜眉 窜困俊辑绰 弥檬肺 目乔 绵力甫 俺弥茄 镑栏肺 1技措 官府胶鸥牢 目乔 疙厘, 目乔 冠拱包, 目乔 丑厘, 目乔 芭府, 目乔 傍厘, 官府胶鸥 酒墨单固 殿 促剧茄 目乔 能刨明甫 备绵窍绊 乐阑 挥父 酒聪扼 目乔 傈巩痢 措何盒捞 肺胶泼阑 窍绰 肺胶磐府 墨其肺 己诀 吝牢 疙角惑何茄 目乔 档矫促.",37.7721117,128.9481046,,
碍盔,碍釜矫,版器措,碍盔档 碍釜矫 版器肺 365 版器措,"版器措(甜萦)绰碍盔档碍釜矫俊辑 悼合率栏肺 7km 瘤痢, 攫傣 困狼 穿措(拽渔)肺, 沥搁 5沫, 螟搁 5沫狼 迫累瘤贺 扒拱捞促.1971斥12岿 16老碍盔档蜡屈巩拳犁力6龋肺 瘤沥登菌栏哥,包悼迫版狼 窍唱捞促. 版器龋荐客 贾圭, 悼秦狼 没颇俊 栋档绰 归炼, 眠籍 崔嘎捞 殿捞 概快 酒抚翠促.",37.7950946,128.896645,033-640-4471,
碍盔,碍釜矫,坷磷清,碍盔档 碍釜矫 啦邦肺3139锅辨 24 坷磷清,"坷磷清(琛裼)篮焊拱力165龋肺,碍盔档碍釜矫俊 乐绰脚荤烙寸苞啦邦 捞捞(资哇 纵齑)狼 积啊捞促.炼急矫措吝扁狼 剧馆笼 葛嚼阑 焊粮茄 锐蓖茄 抗肺辑 林缴器(窈泯) 拌烹狼 没鉴窍绊 家冠茄 迫累笼捞促.第躲俊 坷磷捞 磊扼绊 乐绢辑 坷磷清捞鄂 捞抚捞 嘿咯脸促.",37.7790191,128.8777083,033-660-3301,
碍盔,碍釜矫,沥悼柳,碍盔档 碍釜矫 碍悼搁 沥悼柳府,"沥悼柳(镝栽蛐)篮碍盔档碍釜矫碍悼搁 沥悼柳府俊 乐绰悼秦官村啊肺,秦蹈捞狼 疙家捞促. 炼急矫措茄剧狼堡拳巩扁霖栏肺 沥悼(镝栽)率俊 乐促 窍咯 嘿咯柳 捞抚捞促.沥悼柳开篮 技拌俊辑 啊厘 官村啊俊 啊鳖款 扁瞒开栏肺 扁匙胶合俊 殿犁登绢 乐促.",37.6925687,129.0318013,033-640-4536,
碍盔,加檬矫,酒官捞付阑,碍盔档 加檬矫 没龋肺 122,"酒官捞付阑篮碍盔档加檬矫没龋悼俊 困摹茄窃版档免脚 角氢刮甸狼 笼窜锰捞促. 青沥备开惑加檬矫没龋悼俊 加秦乐栏哥 加莫栏肺 '酒官捞锰' 肚绰 '酒官捞笼窜锰' 捞扼绊档 阂赴促. 趁搁, 鉴措 殿捞 乐绰单 漂洒 窃版档 免脚甸捞 腹扁 锭巩俊 窃蕊趁搁捞 措钎利捞哥 '酒官捞鉴措' 扼 阂府绰 坷隆绢鉴措啊 乐促.",38.203425,128.5943868,033-633-3171,http://www.abai.co.kr/
碍盔,剧剧焙,倡魂荤,碍盔档 剧剧焙 碍泅搁 倡魂荤肺 100,"倡魂荤 (咋撸扪)绰 措茄刮惫 碍盔档 剧剧焙 坷豪魂俊 乐绰 例捞促. 例 林困俊绰 焊拱牢 倡魂荤磨摸籍啪苞, 傍吝俊辑 焊籍阑 掘绢 持绢 滴菌促绰 傍吝 荤府啪苞 弊 厚啊 乐促. 措茄阂背炼拌辆 力3背备 脚蕊荤狼 富荤捞搁辑 悼矫俊 碍盔档狼 包悼迫版 吝 窍唱捞促.",38.1255196,128.6285519,033-672-2447,http://www.naksansa.or.kr/
碍盔,盔林矫,孤瘤决 魂,碍盔档 盔林矫 瘤沥搁 坷农闺府2辨 260,,37.4195306,127.8230309,033-730-9000,http://museumsan.org/
碍盔,牢力焙,汲厩魂,碍盔档 牢力焙 合搁,,38.1077393,128.3633945,033-636-7700,http://seorak.knps.or.kr/
碍盔,牢力焙,盔措府磊累唱公剑,碍盔档 牢力焙 牢力谰 盔巢肺 760 磊累唱公剑 救郴家,,37.9737703,128.2272702,,
碍盔,沥急焙,伙藕酒飘付牢,碍盔档 沥急焙 绊茄谰 窃归魂肺 1445-44,,37.1852172,128.8838208,033-591-3001,http://samtanartmine.com/
碍盔,冕玫矫,巢捞级,碍盔档 冕玫矫 巢魂搁 巢捞级辨 1 巢捞级,,37.7933057,127.5256836,031-580-8114,http://www.namisum.com/
碍盔,冕玫矫,拱饭辨,碍盔档 冕玫矫 胶器明鸥款辨 113-1,,37.8553269,127.6860201,070-4150-9463,http://www.mullegil.org/
碍盔,怕归矫,怕归魂,碍盔档 怕归矫 家档悼,,37.0989363,128.9157327,033-550-2741,
碍盔,乞芒焙,措包飞,碍盔档 乞芒焙 措包飞搁 染拌府,,37.6880009,128.7564593,,
碍盔,乞芒焙,坷措魂,碍盔档 乞芒焙 柳何搁 坷措魂肺 2,,37.7938099,128.5426669,033-332-6417,http://odae.knps.or.kr/
版扁,啊乞焙,悔鹅橇尔胶,版扁档 啊乞焙 没乞搁 绊己府 616,"悔鹅橇尔胶(橇尔胶绢:Petit France)绰2008斥7岿版扁档啊乞焙没乞搁龋馆肺 1063俊 炼己等橇尔胶侥抛付傍盔捞促. 捞抚篮 累篮 橇尔胶扼绰 舵栏肺 家汲绢赴 空磊甫 林力肺 茄 抛付傍盔,积咆零其府扁充包, 岸矾府, 橇尔胶 林琶 傈矫包, 阿辆 惑痢栏肺 备己登绢 乐促.",37.7156792,127.4906184,031-584-8200,http://www.pfcamp.com/
版扁,啊乞焙,酒魔绊夸荐格盔,版扁档 啊乞焙 惑搁 青泅府 魂255,"酒魔绊夸荐格盔(The Garden of Morning Calm)篮版扁档啊乞焙俊 困摹窍咯 10父乞狼 承捞俊 醚 4,500咯辆狼 侥拱阑 焊蜡窍绊 乐绰 盔抗荐格盔捞促. 捞抚篮 茄惫捞 '绊夸茄 酒魔狼 唱扼'捞扼 阂府绰 单辑 厚吩登菌绰单, 拌例喊, 林力喊肺 茄惫狼 固甫 蠢偿 荐 乐档废 炼己登菌促. ",37.7427826,127.3525596,1544-6703,http://www.morningcalm.co.kr/
版扁,绊剧矫,合茄魂,版扁档 绊剧矫 傣剧备 措辑巩辨 375,合茄魂(萘舆)篮辑匡漂喊矫碍合备・档豪备・篮乞备・己合备・辆肺备客版扁档绊剧矫傣剧备・剧林矫・狼沥何矫狼 版拌俊 乐绰 臭捞 835.6m狼魂捞促. 弥辟俊 促剧茄 蜡屈狼 叭扁 沤规 内胶啊 积败巢俊 蝶扼 合茄魂 历瘤措 磊遏阑 楷搬窍绰 合茄魂笛饭辨阑 炼己窍咯 2010斥 8岿 富俊 俺规窍看促.,37.6587631,126.9779832,02-909-0497,http://bukhan.knps.or.kr/
版扁,荐盔矫,荐盔拳己,版扁档 荐盔矫 厘救备 楷公悼 190,"拳己(む)篮 版扁档 荐盔矫 迫崔备客 厘救备俊 吧媚 乐绰 辨捞 5.4懦肺固磐狼 己胞捞促. 1963斥 荤利 3龋肺 瘤沥登菌栏哥, 1997斥 蜡匙胶内 技拌巩拳蜡魂栏肺 殿废登菌促. 荐盔 拳己篮 茄惫 己狼 备己 夸家牢 克己, 己巩, 鞠巩, 魂措, 眉己, 摹己, 利措, 器措, 豪荐措 殿阑 葛滴 爱眠绢 茄惫 己胞 扒绵 扁贱阑 笼措己沁促绊 乞啊等促.",37.2870222,127.0118287,031-290-3600,http://www.swcf.or.kr/
版扁,剧乞焙,滴拱赣府,版扁档 剧乞焙 剧辑搁 剧荐府,"滴拱赣府绰 老馆利栏肺 滴 碍拱捞 赣府甫 嘎措淀捞 父唱 窍唱狼 碍栏肺 儒福绰 镑狼 瘤疙栏肺 荤侩登绰单 版扁档剧乞焙剧辑搁剧荐府(兆猢嘴)俊 困摹茄合茄碍苞巢茄碍捞 窍唱狼 碍栏肺 钦媚瘤绰, 茄碍栏肺 儒福绰 瘤痢阑 舵窍扁档 茄促.",37.5334871,127.3159214,031-770-2068,
版扁,侩牢矫,俊滚罚靛,版扁档 侩牢矫 贸牢备 器邦谰 俊滚罚靛肺 199,"俊滚罚靛(Everland)绰措茄刮惫版扁档侩牢矫氢荐魂磊遏俊 乐绰抛付颇农捞促.1976斥侩牢磊楷丑盔(祝煲砘嬖臆戤)栏肺 贸澜 俺厘茄 捞贰措茄刮惫狼 抛付颇农 吝 啊厘 奴 痹葛甫 磊尔茄促. 俊滚罚靛绰 6俺狼 抛付粮(臂肺国 其绢, 酒皋府沫 绢靛亥贸, 捞假 呼府瘤, 概流罚靛, 蜡矾乔救 绢靛亥贸, 林配乔酒)栏肺 唱炊促.",37.2895073,127.2165946,031-320-5000,http://www.everland.com/
版扁,侩牢矫,茄惫刮加锰,版扁档 侩牢矫 扁蕊备 刮加锰肺 90 茄惫刮加锰,,37.2594584,127.1205835,031-288-0000,http://www.koreanfolk.co.kr/
版扁,颇林矫,庆捞府,版扁档 颇林矫 藕泅搁 过蕊府,,37.7884892,126.6995118,031-946-8551,
版扁,器玫矫,倾宏酒老罚靛,版扁档 器玫矫 脚合搁 没脚肺947锅辨 35,,37.9656797,127.1316219,031-535-6494,http://herbisland.co.kr/
版巢,芭力矫,秦陛碍,版惑巢档 芭力矫 巢何搁 秦陛碍肺 270,"1971斥 疙铰 力2龋肺瘤沥登菌栏哥 搁利223,992С捞促. 芭力档 巢悼率俊 阂睛 脾绢唱柯 哎谤(梳旺)捞 乐绰单, 弊 场俊辑 冻绢廉 唱埃 茄 耽绢府狼 倒级捞 秦陛碍捞促. 秦陛碍 官困级篮 哎谤苞 啊鳖款 芭府捞骨肺 累篮 硅肺档 奖霸 空贰且 荐 乐促.",34.7357654,128.6753076,,
版巢,巢秦焙,巢秦刀老付阑,版惑巢档 巢秦焙 伙悼搁 拱扒府 1074-2,"1960斥措俊 魂诀开焙栏肺 刀老俊 颇斑登绢 茄惫狼 版力惯傈俊 扁咯茄 刀老芭林 背器甸捞 茄惫俊 沥馒且 荐 乐档废 活狼 磐傈阑 力傍秦林绊, 刀老狼 捞惫巩拳甫 版氰窍绰 包堡瘤肺 俺惯窍扁 困秦 2001斥何磐 炼己茄 镑捞促. 刀老 背器甸捞 流立 刀老俊辑 扒绵何犁甫 荐涝窍咯 傈烹利牢 刀老 剧侥 林琶阑 扒赋窍看绰单 2008斥 泅犁 29悼狼 林琶捞 肯傍登菌促.",34.799238,128.0401505,,http://xn--q20b22d63gstp7hax35e.com/
版巢,巢秦焙,促珐捞付阑,版惑巢档 巢秦焙 巢搁 巢搁肺679锅辨 21 促珐捞滴饭规,"版惑巢档 巢秦焙 巢搁 全泅府 促珐捞付阑狼 促珐捞绰 累篮 拌窜侥 稠阑 富茄促. 酒流档 丑荤老俊 家客 里扁啊 鞘荐牢 付阑捞哥, 付阑 牢备狼 90% 捞惑捞 炼惑 措措肺 混酒坷绰 荤恩甸捞扼 侥荤 矫埃俊 旧篮 镑捞 官肺 逛冈绰 镑捞 瞪 沥档肺 牢沥捞 混酒 乐绰 付阑捞促.",34.7275668,127.8940472,010-4590-4642,http://darangyi.go2vil.org/
版巢,魂没焙,瘤府魂,版惑巢档 魂没焙 矫玫搁,"傈合 巢盔矫, 傈巢 备肥焙, 版巢 魂没焙・窍悼焙・窃剧焙俊 吧媚 乐绰 魂捞促. 拳决荤, 玫篮荤, 楷邦荤, 街拌荤 殿 蜡辑 表篮 荤蔓苞 惫焊・焊拱 殿狼 巩拳犁啊 腹栏哥, 800咯 辆狼 侥拱苞 400咯 辆狼 悼拱 殿 悼侥拱惑 肚茄 浅何窍促. 1967斥 惫赋傍盔 力1龋肺 瘤沥登菌促.",35.3369477,127.7306136,055-972-7771,http://jiri.knps.or.kr/
版巢,柳林矫,柳林己,版惑巢档 柳林矫 夯己悼,"柳林己(蛩穸囹)篮版惑巢档柳林矫巢己悼俊辑 夯己悼俊 吧媚 乐绰 籍己栏肺,伙惫矫措归力锭 力累登菌促.柳林己 郴狼盟籍风绰1604斥何磐绰版惑快捍康狼 捍康捞菌绊,1895斥5岿何磐绰版惑档包蔓荤何啊 版巢包蔓荤何, 版合包蔓荤何肺 唱吹搁辑版惑巢档包蔓荤何狼 家犁瘤啊 登菌促.",35.1899151,128.0793195,055-749-2480,http://castle.jinju.go.kr/main/
版巢,芒崇焙,快器此,版惑巢档 芒崇焙 蜡绢搁 措措府,"距 1撅 4000父 斥 傈俊 积己等 巴栏肺 眠沥等促. 措茄刮惫 弥措狼 郴氟 嚼瘤肺 才洒绰 捞镑俊绰 券版何啊 戈辆困扁辆栏肺 瘤沥秦 焊龋窍绊 乐绰 啊矫楷采 殿 340咯 辆狼 侥拱苞 62辆狼 炼幅, 28辆狼 绢幅啊 辑侥窍绊 乐促.",35.5553165,128.416794,055-530-1553,http://www.upo.or.kr/main/
版巢,烹康矫,悼乔尔付阑,版惑巢档 烹康矫 悼龋悼,,34.8457083,128.4277373,055-649-2263,http://www.dongpirang.org/
版巢,烹康矫,家概拱档,版惑巢档 烹康矫 茄魂搁 概磷府  家概拱档,,34.6274139,128.5501535,,
版巢,烹康矫,厘荤档,版惑巢档 烹康矫 茄魂搁 概磷府,,34.7127965,128.5597591,,
版巢,烹康矫,茄妨荐档炼噶纳捞喉墨,版惑巢档 烹康矫 惯俺肺 205,,34.8267121,128.4257256,055-649-3804,
版巢,钦玫焙,秦牢荤,版惑巢档 钦玫焙 啊具搁 秦牢荤辨 122 厚肺傈,,35.8013708,128.0980017,055-934-3000,http://www.haeinsa.or.kr/
版合,版林矫,阂惫荤,版惑合档 版林矫 柳泅悼 15,,35.7904321,129.331882,054-746-9913,http://www.bulguksa.or.kr/
版合,版林矫,籍奔鞠,版惑合档 版林矫 阂惫肺 873-243 籍奔鞠,,35.7948709,129.3492357,054-746-9933,http://www.sukgulam.org/
版合,版林矫,救拘瘤,版惑合档 版林矫 牢空悼,,35.8352458,129.2267759,054-772-4041,
版合,绊飞焙,措啊具 绊盒焙,版惑合档 绊飞焙 绊飞谰 瘤魂府,,35.7264919,128.2534152,054-950-6060,http://utour.goryeong.go.kr/
版合,巩版矫,巩版货犁档赋傍盔,版惑合档 巩版矫 巩版谰 货犁肺 932 巩版货犁包府荤公家,,36.7667249,128.0752626,054-571-0709,http://saejae.gbmg.go.kr/open.content/ko/
版合,豪拳焙,归滴措埃蛆邦凯瞒,版惑合档 豪拳焙 家玫搁 盒玫府 964,,36.9325795,129.0585178,054-1600-7788,
版合,救悼矫,救悼窍雀付阑,版惑合档 救悼矫 浅玫搁 窍雀府,,36.5397963,128.5188753,054-853-0109,http://www.hahoe.or.kr/
版合,康林矫,何籍荤,版惑合档 康林矫 何籍搁 何籍荤肺 345,,36.9986008,128.6873224,054-633-3464,http://korean.visitkorea.or.kr/kor/inut/where/festival/festival.jsp?cid=1773408
版合,匡釜焙,刀档,版惑合档 匡釜焙 匡釜谰 刀档府 魂1-37,,37.2412288,131.8666358,054-790-6420,
版合,匡釜焙,匡釜档,版惑合档 匡釜焙 匡釜谰 档悼府 128,,37.4947995,130.8428138,054-790-6454,http://www.ulleung.go.kr/tour/
堡林,悼备,公殿魂,堡林堡开矫 悼备 瘤魂悼,,35.124186,127.0085289,062-227-1187,http://mudeungsan.gwangju.go.kr/
措备,巢备,救瘤尔 蚌芒榜格,措备堡开矫 巢备 措疙悼,,35.8374629,128.5749207,,
措备,吝备,辟措榜格,措备堡开矫 吝备 厘包悼,,35.8680056,128.5904009,,
措备,吝备,辫堡籍促矫弊府扁辨,措备堡开矫 吝备 措豪悼,,35.8603879,128.6069527,,
措傈,措傣备,拌练魂 炔抨辨,措傈堡开矫 措傣备 厘悼 59,,36.405073,127.4428228,042-623-9909,
措傈,辑备,厘怕魂磊楷绒剧覆,措傈堡开矫 辑备 厘救悼 67,,36.2178502,127.3406333,042-270-7883,http://www.jangtaesan.or.kr/
何魂,荤窍备,皑玫巩拳付阑,何魂堡开矫 荤窍备 皑郴1肺 200,,35.0962955,129.0094353,051-293-3443,http://www.gamcheon.or.kr/
何魂,康档备,怕辆措,何魂堡开矫 康档备 傈噶肺 316,,35.0537985,129.0860393,051-405-2004,http://taejongdae.bisco.or.kr/
何魂,秦款措备,秦款措秦荐垮厘,何魂堡开矫 秦款措备 吝1悼 1015,,35.1581446,129.1583542,064-783-0959,http://sunnfun.haeundae.go.kr/
辑匡,侩魂备,N辑匡鸥况,辑匡漂喊矫 侩魂备 巢魂傍盔辨 105 N辑匡鸥况,,37.551286,126.9882895,02-3455-9277,http://www.nseoultower.com/
辑匡,辆肺备,版汗泵,辑匡漂喊矫 辆肺备 荤流肺 161 版汗泵,,37.5788963,126.9770479,02-3700-3900,http://www.royalpalace.go.kr/
辑匡,辆肺备,版锐泵,辑匡漂喊矫 辆肺备 脚巩肺2啊 1,,37.5708304,126.968566,02-724-0274,
辑匡,辆肺备,堡厘矫厘,辑匡漂喊矫 辆肺备 芒版泵肺 88,,37.5701334,126.9996494,02-2267-0291,http://kwangjangmarket.co.kr/
辑匡,辆肺备,合锰 茄苛付阑,辑匡漂喊矫 辆肺备 拌悼辨 37,,37.5814166,126.9851086,02-2133-1372,http://bukchon.seoul.go.kr/
辑匡,辆肺备,牢荤悼辨傈烹巩拳狼芭府,辑匡漂喊矫 辆肺备 牢荤悼,,37.573965,126.9851077,,
辑匡,辆肺备,辆功,辑匡漂喊矫 辆肺备 绕沥悼 1,,37.575861,126.9939803,02-765-0195,http://jm.cha.go.kr/n_jm/index.html
辑匡,辆肺备,芒版泵,辑匡漂喊矫 辆肺备 芒版泵肺 185 芒版泵,,37.5795568,126.9941684,02-762-4868,http://cgg.cha.go.kr/n_cgg/index.html
辑匡,辆肺备,芒傣泵,辑匡漂喊矫 辆肺备 啦邦肺 99,,37.5826647,126.9919641,02-762-8261,http://www.cdg.go.kr/
辑匡,吝备,巢措巩矫厘,辑匡漂喊矫 吝备 巢措巩矫厘4辨 21,,37.5594484,126.977687,02-753-2805,http://namdaemunmarket.co.kr/
辑匡,吝备,悼措巩叼磊牢敲扼磊,辑匡漂喊矫 吝备 阑瘤肺 281,,37.5672187,127.0098308,02-2153-0000,
辑匡,吝备,疙悼芭府,辑匡漂喊矫 吝备 疙悼2啊,,37.5630049,126.9847015,,
匡魂,巢备,厘积器 绊贰巩拳漂备,匡魂堡开矫 巢备 厘积器绊贰肺 210,,35.5027034,129.3783627,052-226-5672,http://www.whalecity.kr/
匡魂,匡林焙,馆备措鞠阿拳,匡魂堡开矫 匡林焙 攫剧谰 措邦府 魂234-1,,35.6037587,129.1779245,052-229-6678,http://bangudae.ulsan.go.kr/
牢玫,巢悼备,家贰器备,牢玫堡开矫 巢悼备 稠泅悼 111,,37.3985379,126.7402347,070-7529-8089,http://www.soraepogu.com/
傈巢,邦己焙,级柳碍扁瞒付阑,傈扼巢档 邦己焙 坷邦搁 扁瞒付阑肺 232,,35.2775754,127.3082808,061-363-9900,http://www.gstrain.co.kr/
傈巢,淬剧焙,磷踌盔,傈扼巢档 淬剧焙 淬剧谰 磷踌盔肺 119,,35.328028,126.9858999,061-380-2680,http://juknokwon.go.kr/
傈巢,焊己焙,焊己踌瞒圭,傈扼巢档 焊己焙 焊己谰 踌瞒肺 763-43,,34.7165412,127.0788942,061-852-4540,http://dhdawon.com/
傈巢,鉴玫矫,倡救谰己刮加付阑,傈扼巢档 鉴玫矫 倡救搁 面刮辨 30 包荤,,34.9068805,127.339345,061-749-8831,http://nagan.suncheon.go.kr/nagan/
傈巢,鉴玫矫,鉴玫父磊楷积怕傍盔,傈扼巢档 鉴玫矫 鉴玫父辨 513-25 鉴玫父玫巩措,,34.8858563,127.5086671,061-749-6052,http://www.suncheonbay.go.kr/
傈巢,脚救焙,刘档,傈扼巢档 脚救焙 刘档搁,,34.9914243,126.1561887,061-271-7619,http://www.jeung-do.com/
傈巢,咯荐矫,坷悼档 悼归采,傈扼巢档 咯荐矫 荐沥悼 魂1-11,,34.7447,127.7667461,061-690-7303,http://www.odongdo.go.kr/
傈巢,咯荐矫,氢老鞠,傈扼巢档 咯荐矫 倒魂谰 氢老鞠肺 60,,34.5914162,127.8037534,061-644-4742,http://www.hyangiram.org/
傈巢,秦巢焙,秦巢 顶场付阑,傈巢 秦巢焙 价瘤搁 顶场付阑 老盔,,34.2985206,126.5274381,061-530-5229,http://korean.visitkorea.or.kr/kor/inut/where/festival/festival.jsp?cid=141371
傈合,绊芒焙,急款魂,傈扼合档 绊芒焙 酒魂搁,,35.4988426,126.568943,063-563-3450,
傈合,焙魂矫,矫埃咯青,傈扼合档 焙魂矫 备康5辨 101,,35.9885945,126.710065,070-8281-1699,http://www.timetour169.com/
傈合,公林焙,傣蜡魂,傈扼合档 公林焙 汲玫搁 备玫悼1肺 159 傣蜡魂惫赋傍盔包府荤公家,,35.8598426,127.7463041,063-322-3174,http://deogyu.knps.or.kr/
傈合,何救焙,函魂馆档,傈扼合档 何救焙 函魂搁 措亲府,,35.6466941,126.6116512,063-582-7808,
傈合,鉴芒焙,碍玫魂,傈扼合档 鉴芒焙 迫傣搁,,35.4048135,127.0489156,063-650-1672,
傈合,烙角焙,烙角摹令付阑,傈扼合档 烙角焙 烙角谰 摹令付阑1辨 4 摹令付阑,,35.6362994,127.2946876,063-643-3700,http://cheese.invil.org/index.html
傈合,傈林矫,傈林 茄苛付阑,傈扼合档 傈林矫 肯魂备 背悼,,35.8144258,127.1526831,063-282-1330,http://tour.jeonju.go.kr/index.sko?menuCd=AA06000000000
傈合,沥谰矫,郴厘魂,傈扼合档 沥谰矫 郴厘魂肺 936 郴厘魂荤公家,,35.4783883,126.8889987,063-538-7875,http://naejang.knps.or.kr/
力林,辑蓖器矫,辫康癌岸矾府 滴葛厩,力林漂喊磊摹档 辑蓖器矫 己魂谰 伙崔肺 137,,33.3720958,126.8541363,064-784-9907,http://www.dumoak.co.kr/
力林,辑蓖器矫,挤瘤内瘤,力林漂喊磊摹档 辑蓖器矫 己魂谰 绊己府,,33.4238023,126.9307364,064-782-2810,
力林,辑蓖器矫,己魂老免豪,力林漂喊磊摹档 辑蓖器矫 己魂谰 己魂府 114,,33.4588828,126.9408234,064-783-0959,
力林,辑蓖器矫,艰家憋,力林漂喊磊摹档 辑蓖器矫 瓤捣肺 170,,33.2525008,126.6243437,064-732-1562,
力林,辑蓖器矫,力林棵饭,力林漂喊磊摹档 辑蓖器矫 磨绞府肺214锅辨 17-17 力林棵饭,,33.2452241,126.5769663,064-762-2190,http://www.jejuolle.org/
力林,辑蓖器矫,吝巩包堡窜瘤,力林漂喊磊摹档 辑蓖器矫 吝巩悼,,33.247828,126.4106493,064-739-1330,
力林,力林矫,厚磊覆,力林漂喊磊摹档 力林矫 备谅谰 厚磊剑辨 62 厚磊覆,,33.4843787,126.8066204,064-710-7912,http://www.jejutour.go.kr/contents/?act=view&mid=TU&seq=242
力林,力林矫,荤妨聪剑辨,力林漂喊磊摹档 力林矫 炼玫谰,,33.4227508,126.6266779,064-900-8800,
力林,力林矫,魂崩何府,力林漂喊磊摹档 力林矫 炼玫谰 背贰府 魂38,,33.4296081,126.6948719,064-783-9900,http://www.sangumburi.net/
力林,力林矫,快档,力林漂喊磊摹档 力林矫 快档搁,,33.505339,126.9585262,064-782-5671,
力林,力林矫,茄扼魂,力林漂喊磊摹档 力林矫 秦救悼 魂220-1,,33.3591604,126.5343004,064-713-9950,http://www.hallasan.go.kr/
面巢,傍林矫,公飞空釜,面没巢档 傍林矫 陛己悼,,36.462009,127.1136045,,
面巢,何咯焙,何家魂己,面没巢档 何咯焙 何咯谰 包合府,,36.2874395,126.9152258,,
面巢,辑魂矫,秦固谰己,面没巢档 辑魂矫 秦固搁 悼巩1辨 36-1,,36.7128841,126.5485392,041-660-2540,
面巢,辑玫焙,惫赋积怕盔,面没巢档 辑玫焙 付辑搁 价郴府 84-1,,36.027009,126.7196359,041-950-5300,http://www.nie.re.kr/
面巢,怕救焙,救搁档,面没巢档 怕救焙 救搁谰,,36.467866,126.3672955,041-673-3081,
面合,鲍魂焙,魂阜捞烤辨,面没合档 鲍魂焙 磨己搁 荤篮府 546-1,,36.7677261,127.8406025,043-832-3527,http://sanmaki.goesan.go.kr/
面合,窜剧焙,窜剧迫版,面没合档 窜剧焙 窜剧谰 绊荐府,,36.9867682,128.3761825,,
面合,窜剧焙,家归魂,面没合档 窜剧焙 啊邦搁,,36.9576181,128.4845351,054-638-6196,http://sobaek.knps.or.kr/
面合,焊篮焙,过林荤,面没合档 焊篮焙 加府魂搁 过林荤肺 405 傈烹漫笼,,36.542457,127.833389,043-543-3615,http://beopjusa.org/
,,,,,,,,
,,,,,,,,